#dP2021  6 11 18  0  0.00000000      96 __u+U ITR00 EXT  IAC
## 2161 496800.00000000   900.00000000 59376 0.7500000000000
+  115   C06C07C08C09C10C11C12C13C14C16C19C20C21C22C23C24C25
+        C26C27C28C29C30C32C33C34C35C36C37C38C39C40C41C42C43
+        C44C45C46E01E02E03E04E05E07E08E09E11E12E13E14E15E18
+        E19E21E24E25E26E27E30E31E33E36G01G02G03G04G05G06G07
+        G08G09G10G12G13G14G15G16G17G18G19G20G21G22G23G24G25
+        G26G27G28G29G30G32J01J02J03R01R02R03R04R05R07R08R09
+        R11R12R13R14R15R16R17R18R19R20R21R22R24  0  0  0  0
++         8 10  8 10  9  9  9 10  8  8  7  8  9  8  9  8  9
++         8  7  6 10  8  9  8  9 10  7  7  9  8  7  8 10  9
++         8  8  9  7  7  7  9  8  8  7  8  8  9  8  8  8  7
++         6  7  7  7  6  7  7  7  9  9 10  7  7  8  8 10  8
++         7  7  7  7  7  8  8  7  7  8  9  8  7  8  7  7  7
++         8  7  8  8  9  7 10 10  9  9  7  8  8 10  9  9 11
++        10  8  9  8  7  8  8  9 10  9  9  9  7  0  0  0  0
%c M  cc GPS ccc cccc cccc cccc cccc ccccc ccccc ccccc ccccc
%c cc cc ccc ccc cccc cccc cccc cccc ccccc ccccc ccccc ccccc
%f  0.0000000  0.000000000  0.00000000000  0.000000000000000
%f  0.0000000  0.000000000  0.00000000000  0.000000000000000
%i    0    0    0    0      0      0      0      0         0
%i    0    0    0    0      0      0      0      0         0
/* IAC                                ULTRA-RAPID PREDICTION
/* S/V CLOCKS ARE ALIGNED TO GNSS TIME                      
/* G:C1WC2W R:C1PC2P E:C1XC5X C:C2IC6I J:C1CC2S             
/* PCV:IGS14_2148 OL/AL:FES2004  NONE     YN ORB:CoN CLK:CoN
*  2021 06 11 18 15  0.00000000
PC06 -17930.034995  21431.452841  31924.881225    491.347696
PC07 -20591.158222  37118.238919   -934.129538     84.281796
PC08  -4220.246493  29972.743967 -29088.790291   -893.780603
PC09  -1016.018912  24760.371481  34441.912595    455.706016
PC10  -8878.819418  38854.067505 -14220.378159    -31.116532
PC11  -3109.681969 -15912.470994  22772.613814    393.947340
PC12  16782.493924 -10044.810464  19923.446480    848.093330
PC13   4787.660757  36743.427898 -19790.940382    296.093914
PC14   5552.357738 -22785.751281 -15048.367273    912.130997
PC16 -15155.611993  21769.356704  32859.282081   -892.720545
PC19   3406.022806  18294.488467  20832.452506    868.792596
PC20 -12290.347069  23614.635178   8449.809286   -880.458638
PC21  21460.085037 -14967.943248   9685.888834   -935.954282
PC22  17619.553014   2240.372430  21522.040972   -950.663463
PC23 -17611.783946 -13111.355612  17229.917769   -932.620596
PC24   3430.894789 -23174.228914 -15180.962344   -888.768995
PC25 -11203.591930 -25482.088751   2102.307451   -902.552457
PC26  14090.861280  -8341.095326 -22604.684198    894.141950
PC27 -24011.291913   4652.925056 -13444.728062    546.679170
PC28 -26485.290361  -7958.317387   3756.732811    -63.508099
PC29  13965.981560  15345.094094 -18673.179096    404.752963
PC30  -7539.540497  14607.977173 -22556.166957    470.326777
PC32 -21347.676216  15173.960394  -9636.348751   -925.799307
PC33  -3468.244544 -18304.275790 -20759.662726   -936.738226
PC34   6779.661892 -14834.541768  22631.858965   -652.684790
PC35  26647.828158   7272.562391  -4107.819199   -237.970349
PC36  10363.567794  25854.107124  -1714.700352   -727.335301
PC37 -14698.181336   6984.786674  22689.377345   -876.836942
PC38  -3044.228471  32847.389798 -26156.027076    154.640677
PC39 -11945.268320  23024.624048  33226.732287     31.723368
PC40 -17667.583348  36544.847900 -11658.673857    170.008155
PC41 -17491.769704  -2458.676475 -21552.289985   -947.141798
PC42  12848.147007 -23529.811153  -7661.756143   -913.541374
PC43 -13330.603854 -15604.346140  18887.106657   -771.868355
PC44  24016.154686  -5365.868590  13179.155432    234.436415
PC45  17555.543504  12978.287103 -17365.364391    464.572219
PC46  -2588.056033  23691.685030  14502.139317    228.935497
PE01  -1969.558710  29356.118214  -3242.463323  -1127.152521
PE02   1882.942548 -29353.248646   3368.132754    225.412782
PE03   4045.920885 -18828.402427 -22468.941445   -440.873010
PE04  16609.008474  10266.551855  22257.054103   -790.307083
PE05  22681.208701 -16476.397068  -9484.283550   -273.742208
PE07 -27878.138261   4568.348311  -8849.915787   -548.678842
PE08 -16925.831175  -9823.111637 -22204.924745   5987.590664
PE09  27848.180706  -4850.258925   8761.174083   5637.017080
PE11  24579.247539   6285.519597  15251.614193   5863.606368
PE12  21842.824658  19675.626232  -3556.235172   5165.121084
PE13 -24674.348643  -6581.056036 -14962.760280    417.611080
PE14   -527.876275 -15001.130450  18108.207033  -1462.699778
PE15 -21924.829380 -19566.609028   3523.889456    809.352823
PE18  -2513.485656  20873.733488 -24733.744263  -1601.974752
PE19  -6603.735372  19056.117736  21677.861755    299.769129
PE21 -12861.683510  22502.971452  14297.776490   -670.110375
PE24  16823.921320  -1278.084568 -24333.215362   -949.414370
PE25  12946.476845 -22348.691211 -14454.357080   -536.627930
PE26 -12300.374940  10971.326331 -24588.492074   1704.822446
PE27 -16821.662803   2328.798196  24247.413813    -52.134422
PE30 -10286.021527 -19989.375780  19252.524478   2871.618822
PE31  10858.533913  19066.152394 -19861.891449   -482.108498
PE33   6282.423138  21007.396374 -19889.919692   -469.362920
PE36  12902.353803 -10237.521295  24593.065687   -219.583036
PG01  20642.268354  11898.924627  11830.776147    661.548987
PG02 -11563.945507 -21683.899036  10652.904537   -611.588051
PG03  14626.515670   3422.808412  21811.629653   -189.205683
PG04  25117.763187   1870.346242   8534.211382   -199.548757
PG05  -8337.775773 -17386.480780 -18346.249382    -44.651266
PG06  -1145.747477 -19487.871055  18039.876458     25.755703
PG07  17202.957507  -1834.790702 -19927.046573    175.616130
PG08  19358.246324   7552.421337 -16727.027072    -24.699210
PG09  25490.518540  -7198.921032  -2200.692560   -350.590786
PG10 -11687.565989  23004.537033  -5546.187885   -140.337608
PG12 -13582.149759  -5919.017743  21792.602336    -53.614980
PG13 -11169.633865 -13258.015272 -20293.137743    143.604438
PG14  12917.645912 -22503.232212  -5596.973546     70.968503
PG15 -20390.836560  -6249.869062 -16406.746326   -143.081543
PG16   2455.085698  21140.835139 -15838.404419   -339.699330
PG17  17047.744488 -13153.344547  15977.624756    456.876104
PG18 -14785.552871   5326.943569 -21432.991750    347.182933
PG19   8556.623918 -14441.570484  20263.746063     12.063693
PG20  -9832.431339 -17551.226223 -17474.087609    521.265618
PG21  21312.034871  15625.709709   5315.488197    124.363093
PG22  11941.415957  13383.225128  19836.818007   -591.033377
PG23 -15706.916357  14967.483758 -15305.948628     97.897119
PG24 -21530.144992 -14331.960507   6645.385080    127.346854
PG25 -16526.837345   7693.348655  18955.894499    154.059571
PG26  -2779.877526  25578.005307  -6047.344765     97.109989
PG27   8648.222761  13180.984200 -21608.365938   -145.498224
PG28   9954.850394 -24719.758101   1386.671332    556.304086
PG29 -26171.706581   4414.131689  -1641.702568   -362.471483
PG30   7852.226534 -14414.883326 -20778.138586   -437.736824
PG32 -13961.783844  15060.652132  16863.088699     18.816115
PJ01 -30183.174987  29532.700491   5858.140137   -394.078560
PJ02 -27685.935252  26252.507841  22939.102902     -0.212104
PJ03 -29850.907038  16796.418951 -19902.561362     -7.811875
PR01  14911.875324 -18475.320770  -9297.288418     80.724401
PR02  -2118.950016 -11872.521189 -22438.800737    482.022750
PR03 -16221.481782   1146.008161 -19586.945748     37.511056
PR04 -20921.367571  13385.750584  -5772.887329     90.855602
PR05 -14053.541038  18049.235902  11281.631044     73.382291
PR07  16662.738929  -1664.485973  19299.471774    -42.365787
PR08  20956.018442 -13366.939389   5831.198384    -59.454221
PR09   7292.337235  23622.801350  -6417.957162     -2.572802
PR11   9269.151409  -8078.651520 -22335.015141    -11.227011
PR12   1633.692708 -22881.331469 -11145.918240    236.365280
PR13  -6954.271715 -23846.949746   5776.522367    -56.112755
PR14 -11586.353286 -10467.352149  20177.645909     65.235797
PR15  -9352.021062   8528.002395  22168.535364    103.312510
PR16   -664.166291  23302.706615  10185.776024    -16.227069
PR17 -23763.026685  -9326.335889    168.746200    431.806966
PR18 -20079.759414   -367.845693 -15685.425163     79.700069
PR19  -6892.482043   8242.131636 -23141.398826   -147.355009
PR20  13295.037005  13806.144987 -16854.883905    -50.698721
PR21  23878.760490   8866.550944   1087.966424   -215.799281
PR22  19548.353780    -46.591630  16422.689843   -117.188192
PR24 -13977.776297 -13897.822503  16207.548033     46.138328
EOF
